IRIDIUM 126             
1 42809U 17039G   24186.81206668  .00000229  00000+0  74770-4 0  9992
2 42809  86.3969 291.3314 0002064 100.4795 259.6633 14.34215283367842
IRIDIUM 124             
1 42810U 17039H   24186.81677789  .00000538  00000+0  15407-3 0  9994
2 42810  86.4493 228.0616 0002678  90.9231 269.2277 14.43285389372366
IRIDIUM 128             
1 42811U 17039J   24186.87257962  .00000080  00000+0  21353-4 0  9998
2 42811  86.3979 322.8363 0002323  98.5108 261.6351 14.34214712367883
IRIDIUM 121             
1 42812U 17039K   24186.83110208 -.00000040  00000+0 -21285-4 0  9998
2 42812  86.3967 291.3464 0002231  95.1644 264.9806 14.34215007367721
IRIDIUM 133             
1 42955U 17061A   24186.90428728  .00000640  00000+0  22133-3 0  9994
2 42955  86.3982 322.9226 0002080  98.7982 261.3450 14.34214954352684
IRIDIUM 100             
1 42956U 17061B   24186.89794857  .00000389  00000+0  13192-3 0  9997
2 42956  86.3979 322.8611 0002094  94.8624 265.2811 14.34218104352688
IRIDIUM 122             
1 42957U 17061C   24186.93600368  .00000387  00000+0  13129-3 0  9994
2 42957  86.3979 322.8430 0002141  96.0158 264.1282 14.34215286352696
IRIDIUM 129             
1 42958U 17061D   24186.89160011  .00000406  00000+0  13789-3 0  9990
2 42958  86.3978 322.9212 0001882  98.9953 261.1456 14.34214836352702
